[{"OBJECT_NAME":"STARLINK-34396","OBJECT_ID":"2025-129AA","EPOCH":"2025-09-24T01:11:15.671616","MEAN_MOTION":14.98343507,"ECCENTRICITY":0.00030909,"INCLINATION":70.0011,"RA_OF_ASC_NODE":134.7113,"ARG_OF_PERICENTER":271.2951,"MEAN_ANOMALY":88.7854,"EPHEMERIS_TYPE":0,"CLASSIFICATION_TYPE":"U","NORAD_CAT_ID":64436,"ELEMENT_SET_NO":999,"REV_AT_EPOCH":1626,"BSTAR":0.00071225763,"MEAN_MOTION_DOT":8.419e-5,"MEAN_MOTION_DDOT":0},{"OBJECT_NAME":"STARLINK-34507","OBJECT_ID":"2025-129AB","EPOCH":"2025-09-24T01:53:17.859552","MEAN_MOTION":14.98334636,"ECCENTRICITY":0.00028691,"INCLINATION":70.0012,"RA_OF_ASC_NODE":134.4199,"ARG_OF_PERICENTER":266.6192,"MEAN_ANOMALY":93.4638,"EPHEMERIS_TYPE":0,"CLASSIFICATION_TYPE":"U","NORAD_CAT_ID":64437,"ELEMENT_SET_NO":999,"REV_AT_EPOCH":1633,"BSTAR":0.00025147185,"MEAN_MOTION_DOT":2.909e-5,"MEAN_MOTION_DDOT":0},{"OBJECT_NAME":"STARLINK-34465","OBJECT_ID":"2025-130A","EPOCH":"2025-09-23T23:05:51.563904","MEAN_MOTION":15.39583893,"ECCENTRICITY":7.168e-5,"INCLINATION":53.1568,"RA_OF_ASC_NODE":145.2989,"ARG_OF_PERICENTER":83.2609,"MEAN_ANOMALY":276.8477,"EPHEMERIS_TYPE":0,"CLASSIFICATION_TYPE":"U","NORAD_CAT_ID":64438,"ELEMENT_SET_NO":999,"REV_AT_EPOCH":1514,"BSTAR":0.0022239349,"MEAN_MOTION_DOT":0.000895,"MEAN_MOTION_DDOT":0},{"OBJECT_NAME":"STARLINK-34456","OBJECT_ID":"2025-130B","EPOCH":"2025-09-24T02:06:07.843392","MEAN_MOTION":15.39600247,"ECCENTRICITY":8.205e-5,"INCLINATION":53.1567,"RA_OF_ASC_NODE":144.6591,"ARG_OF_PERICENTER":91.7791,"MEAN_ANOMALY":268.3308,"EPHEMERIS_TYPE":0,"CLASSIFICATION_TYPE":"U","NORAD_CAT_ID":64439,"ELEMENT_SET_NO":999,"REV_AT_EPOCH":1516,"BSTAR":0.0021344215,"MEAN_MOTION_DOT":0.00085887,"MEAN_MOTION_DDOT":0},{"OBJECT_NAME":"STARLINK-34410","OBJECT_ID":"2025-130C","EPOCH":"2025-09-24T01:59:26.600928","MEAN_MOTION":15.39592011,"ECCENTRICITY":6.629e-5,"INCLINATION":53.1572,"RA_OF_ASC_NODE":144.6284,"ARG_OF_PERICENTER":95.0815,"MEAN_ANOMALY":265.0265,"EPHEMERIS_TYPE":0,"CLASSIFICATION_TYPE":"U","NORAD_CAT_ID":64440,"ELEMENT_SET_NO":999,"REV_AT_EPOCH":1516,"BSTAR":0.0012298912,"MEAN_MOTION_DOT":0.00049067,"MEAN_MOTION_DDOT":0},{"OBJECT_NAME":"STARLINK-34453","OBJECT_ID":"2025-130D","EPOCH":"2025-09-24T01:52:44.573088","MEAN_MOTION":15.39643173,"ECCENTRICITY":0.00013437,"INCLINATION":53.1578,"RA_OF_ASC_NODE":144.6006,"ARG_OF_PERICENTER":98.9061,"MEAN_ANOMALY":261.2096,"EPHEMERIS_TYPE":0,"CLASSIFICATION_TYPE":"U","NORAD_CAT_ID":64441,"ELEMENT_SET_NO":999,"REV_AT_EPOCH":1516,"BSTAR":0.0025035301,"MEAN_MOTION_DOT":0.00101155,"MEAN_MOTION_DDOT":0},{"OBJECT_NAME":"STARLINK-34404","OBJECT_ID":"2025-130E","EPOCH":"2025-09-23T22:39:06.534432","MEAN_MOTION":15.3957412,"ECCENTRICITY":8.496e-5,"INCLINATION":53.1573,"RA_OF_ASC_NODE":145.1818,"ARG_OF_PERICENTER":54.0368,"MEAN_ANOMALY":306.0716,"EPHEMERIS_TYPE":0,"CLASSIFICATION_TYPE":"U","NORAD_CAT_ID":64442,"ELEMENT_SET_NO":999,"REV_AT_EPOCH":1514,"BSTAR":0.0026548806,"MEAN_MOTION_DOT":0.00107135,"MEAN_MOTION_DDOT":0},{"OBJECT_NAME":"STARLINK-34403","OBJECT_ID":"2025-130F","EPOCH":"2025-09-24T01:12:38.151648","MEAN_MOTION":15.39589868,"ECCENTRICITY":0.00010375,"INCLINATION":53.1577,"RA_OF_ASC_NODE":144.4205,"ARG_OF_PERICENTER":66.206,"MEAN_ANOMALY":293.9053,"EPHEMERIS_TYPE":0,"CLASSIFICATION_TYPE":"U","NORAD_CAT_ID":64443,"ELEMENT_SET_NO":999,"REV_AT_EPOCH":1516,"BSTAR":0.0019308396,"MEAN_MOTION_DOT":0.00077544,"MEAN_MOTION_DDOT":0},{"OBJECT_NAME":"STARLINK-34399","OBJECT_ID":"2025-130G","EPOCH":"2025-09-24T01:05:56.959296","MEAN_MOTION":15.39590831,"ECCENTRICITY":0.0001094,"INCLINATION":53.1572,"RA_OF_ASC_NODE":144.3911,"ARG_OF_PERICENTER":104.5959,"MEAN_ANOMALY":255.5168,"EPHEMERIS_TYPE":0,"CLASSIFICATION_TYPE":"U","NORAD_CAT_ID":64444,"ELEMENT_SET_NO":999,"REV_AT_EPOCH":1516,"BSTAR":0.0022264056,"MEAN_MOTION_DOT":0.00089622,"MEAN_MOTION_DDOT":0},{"OBJECT_NAME":"STARLINK-34398","OBJECT_ID":"2025-130H","EPOCH":"2025-09-23T22:32:25.495872","MEAN_MOTION":15.3957073,"ECCENTRICITY":6.399e-5,"INCLINATION":53.1567,"RA_OF_ASC_NODE":145.1507,"ARG_OF_PERICENTER":62.7593,"MEAN_ANOMALY":297.3477,"EPHEMERIS_TYPE":0,"CLASSIFICATION_TYPE":"U","NORAD_CAT_ID":64445,"ELEMENT_SET_NO":999,"REV_AT_EPOCH":1514,"BSTAR":0.0011558734,"MEAN_MOTION_DOT":0.00046039,"MEAN_MOTION_DDOT":0},{"OBJECT_NAME":"STARLINK-34402","OBJECT_ID":"2025-130J","EPOCH":"2025-09-23T22:25:44.270688","MEAN_MOTION":15.3957922,"ECCENTRICITY":6.188e-5,"INCLINATION":53.1579,"RA_OF_ASC_NODE":145.1221,"ARG_OF_PERICENTER":82.9024,"MEAN_ANOMALY":277.2051,"EPHEMERIS_TYPE":0,"CLASSIFICATION_TYPE":"U","NORAD_CAT_ID":64446,"ELEMENT_SET_NO":999,"REV_AT_EPOCH":1514,"BSTAR":0.0010418606,"MEAN_MOTION_DOT":0.00041445,"MEAN_MOTION_DDOT":0},{"OBJECT_NAME":"STARLINK-34450","OBJECT_ID":"2025-130K","EPOCH":"2025-09-24T01:26:00.618432","MEAN_MOTION":15.39606028,"ECCENTRICITY":9.431e-5,"INCLINATION":53.1575,"RA_OF_ASC_NODE":144.4796,"ARG_OF_PERICENTER":60.3764,"MEAN_ANOMALY":299.7335,"EPHEMERIS_TYPE":0,"CLASSIFICATION_TYPE":"U","NORAD_CAT_ID":64447,"ELEMENT_SET_NO":999,"REV_AT_EPOCH":1516,"BSTAR":0.0017599183,"MEAN_MOTION_DOT":0.00070618,"MEAN_MOTION_DDOT":0},{"OBJECT_NAME":"STARLINK-34433","OBJECT_ID":"2025-130L","EPOCH":"2025-09-23T22:12:22.307616","MEAN_MOTION":15.39569649,"ECCENTRICITY":0.0001117,"INCLINATION":53.1576,"RA_OF_ASC_NODE":145.0626,"ARG_OF_PERICENTER":48.9882,"MEAN_ANOMALY":311.1219,"EPHEMERIS_TYPE":0,"CLASSIFICATION_TYPE":"U","NORAD_CAT_ID":64448,"ELEMENT_SET_NO":999,"REV_AT_EPOCH":1514,"BSTAR":0.0016906769,"MEAN_MOTION_DOT":0.00067716,"MEAN_MOTION_DDOT":0},{"OBJECT_NAME":"STARLINK-34459","OBJECT_ID":"2025-130M","EPOCH":"2025-09-24T00:59:15.616608","MEAN_MOTION":15.39587265,"ECCENTRICITY":9.953e-5,"INCLINATION":53.1573,"RA_OF_ASC_NODE":144.3619,"ARG_OF_PERICENTER":94.9543,"MEAN_ANOMALY":265.1576,"EPHEMERIS_TYPE":0,"CLASSIFICATION_TYPE":"U","NORAD_CAT_ID":64449,"ELEMENT_SET_NO":999,"REV_AT_EPOCH":1516,"BSTAR":0.0019154219,"MEAN_MOTION_DOT":0.00076909,"MEAN_MOTION_DDOT":0},{"OBJECT_NAME":"STARLINK-34361","OBJECT_ID":"2025-130N","EPOCH":"2025-09-24T00:52:34.413024","MEAN_MOTION":15.39598437,"ECCENTRICITY":8.758e-5,"INCLINATION":53.1575,"RA_OF_ASC_NODE":144.333,"ARG_OF_PERICENTER":74.8563,"MEAN_ANOMALY":285.2538,"EPHEMERIS_TYPE":0,"CLASSIFICATION_TYPE":"U","NORAD_CAT_ID":64450,"ELEMENT_SET_NO":999,"REV_AT_EPOCH":1633,"BSTAR":0.0020097964,"MEAN_MOTION_DOT":0.00080789,"MEAN_MOTION_DDOT":0},{"OBJECT_NAME":"STARLINK-34392","OBJECT_ID":"2025-130P","EPOCH":"2025-09-23T21:38:55.914720","MEAN_MOTION":15.39584015,"ECCENTRICITY":0.00012079,"INCLINATION":53.1571,"RA_OF_ASC_NODE":144.9158,"ARG_OF_PERICENTER":39.2334,"MEAN_ANOMALY":320.8758,"EPHEMERIS_TYPE":0,"CLASSIFICATION_TYPE":"U","NORAD_CAT_ID":64451,"ELEMENT_SET_NO":999,"REV_AT_EPOCH":1514,"BSTAR":0.0021234458,"MEAN_MOTION_DOT":0.00085392,"MEAN_MOTION_DDOT":0},{"OBJECT_NAME":"STARLINK-34367","OBJECT_ID":"2025-130Q","EPOCH":"2025-09-23T22:31:56.475840","MEAN_MOTION":15.39577945,"ECCENTRICITY":8.535e-5,"INCLINATION":53.1574,"RA_OF_ASC_NODE":145.1463,"ARG_OF_PERICENTER":60.6073,"MEAN_ANOMALY":299.5017,"EPHEMERIS_TYPE":0,"CLASSIFICATION_TYPE":"U","NORAD_CAT_ID":64452,"ELEMENT_SET_NO":999,"REV_AT_EPOCH":1513,"BSTAR":0.0014609722,"MEAN_MOTION_DOT":0.00058406,"MEAN_MOTION_DDOT":0},{"OBJECT_NAME":"STARLINK-34221","OBJECT_ID":"2025-130R","EPOCH":"2025-09-24T01:52:16.373856","MEAN_MOTION":15.3959235,"ECCENTRICITY":7.451e-5,"INCLINATION":53.1573,"RA_OF_ASC_NODE":144.5948,"ARG_OF_PERICENTER":68.9811,"MEAN_ANOMALY":291.1273,"EPHEMERIS_TYPE":0,"CLASSIFICATION_TYPE":"U","NORAD_CAT_ID":64453,"ELEMENT_SET_NO":999,"REV_AT_EPOCH":1516,"BSTAR":0.0018659514,"MEAN_MOTION_DOT":0.00074905,"MEAN_MOTION_DDOT":0},{"OBJECT_NAME":"STARLINK-34282","OBJECT_ID":"2025-130S","EPOCH":"2025-09-24T01:00:52.719840","MEAN_MOTION":15.30169075,"ECCENTRICITY":0.00010423,"INCLINATION":53.1582,"RA_OF_ASC_NODE":145.0813,"ARG_OF_PERICENTER":94.4448,"MEAN_ANOMALY":265.6672,"EPHEMERIS_TYPE":0,"CLASSIFICATION_TYPE":"U","NORAD_CAT_ID":64454,"ELEMENT_SET_NO":999,"REV_AT_EPOCH":1515,"BSTAR":0.0014820436,"MEAN_MOTION_DOT":0.00043751,"MEAN_MOTION_DDOT":0},{"OBJECT_NAME":"STARLINK-34295","OBJECT_ID":"2025-130T","EPOCH":"2025-09-23T22:11:52.899648","MEAN_MOTION":15.39594963,"ECCENTRICITY":2.844e-5,"INCLINATION":53.1577,"RA_OF_ASC_NODE":145.0579,"ARG_OF_PERICENTER":79.4601,"MEAN_ANOMALY":280.6436,"EPHEMERIS_TYPE":0,"CLASSIFICATION_TYPE":"U","NORAD_CAT_ID":64455,"ELEMENT_SET_NO":999,"REV_AT_EPOCH":1514,"BSTAR":0.0023669038,"MEAN_MOTION_DOT":0.00095389,"MEAN_MOTION_DDOT":0},{"OBJECT_NAME":"STARLINK-34430","OBJECT_ID":"2025-130U","EPOCH":"2025-09-24T01:12:09.100512","MEAN_MOTION":15.39597573,"ECCENTRICITY":8.831e-5,"INCLINATION":53.1577,"RA_OF_ASC_NODE":144.4158,"ARG_OF_PERICENTER":70.1285,"MEAN_ANOMALY":289.9815,"EPHEMERIS_TYPE":0,"CLASSIFICATION_TYPE":"U","NORAD_CAT_ID":64456,"ELEMENT_SET_NO":999,"REV_AT_EPOCH":1516,"BSTAR":0.0019551499,"MEAN_MOTION_DOT":0.00078556,"MEAN_MOTION_DDOT":0},{"OBJECT_NAME":"STARLINK-34445","OBJECT_ID":"2025-130V","EPOCH":"2025-09-24T00:58:46.576704","MEAN_MOTION":15.39587697,"ECCENTRICITY":9.946e-5,"INCLINATION":53.1581,"RA_OF_ASC_NODE":144.3585,"ARG_OF_PERICENTER":87.1285,"MEAN_ANOMALY":272.9834,"EPHEMERIS_TYPE":0,"CLASSIFICATION_TYPE":"U","NORAD_CAT_ID":64457,"ELEMENT_SET_NO":999,"REV_AT_EPOCH":1516,"BSTAR":0.0018163628,"MEAN_MOTION_DOT":0.00072873,"MEAN_MOTION_DDOT":0},{"OBJECT_NAME":"STARLINK-34439","OBJECT_ID":"2025-130W","EPOCH":"2025-09-24T00:52:05.371392","MEAN_MOTION":15.39587266,"ECCENTRICITY":7.997e-5,"INCLINATION":53.1571,"RA_OF_ASC_NODE":144.3289,"ARG_OF_PERICENTER":83.2481,"MEAN_ANOMALY":276.8615,"EPHEMERIS_TYPE":0,"CLASSIFICATION_TYPE":"U","NORAD_CAT_ID":64458,"ELEMENT_SET_NO":999,"REV_AT_EPOCH":1516,"BSTAR":0.0017857103,"MEAN_MOTION_DOT":0.00071624,"MEAN_MOTION_DDOT":0}]
